{
  "type": "FeatureCollection",
  "features": [
    {
      "type": "Feature",
      "properties": {
        "norad_id": 30603,
        "name": "FENGYUN 1C DEB",
        "group": "fengyun-1c-debris",
        "lat": 29.698509068398717,
        "lon": -3.7299453498691784,
        "alt_km": 1072.5347756773917,
        "timestamp": "2025-12-03T04:52:29.914669+00:00",
        "meta_object_name": "FENGYUN 1C DEB",
        "meta_object_id": "1999-025AMJ",
        "meta_epoch": "2025-12-02T01:06:38.105568",
        "meta_mean_motion": 13.84066911,
        "meta_eccentricity": 0.01829228,
        "meta_inclination": 98.4104,
        "meta_ra_of_asc_node": 0.074,
        "meta_arg_of_pericenter": 234.5598,
        "meta_mean_anomaly": 153.8128,
        "meta_ephemeris_type": 0,
        "meta_classification_type": "U",
        "meta_norad_cat_id": 30603,
        "meta_element_set_no": 999,
        "meta_rev_at_epoch": 94728,
        "meta_bstar": 0.0014668065,
        "meta_mean_motion_dot": 1.819e-05,
        "meta_mean_motion_ddot": 0,
        "tle_line1": "1 30603U 99025AMJ 25336.04627437  .00001819  00000+0  14668-2 0  9994",
        "tle_line2": "2 30603  98.4104   0.0740 0182922 234.5598 153.8128 13.84066911947288"
      },
      "geometry": {
        "type": "Point",
        "coordinates": [
          -3.7299453498691784,
          29.698509068398717
        ]
      }
    },
    {
      "type": "Feature",
      "properties": {
        "norad_id": 30604,
        "name": "FENGYUN 1C DEB",
        "group": "fengyun-1c-debris",
        "lat": 36.41530010931052,
        "lon": -161.27979031804668,
        "alt_km": 855.2892594260811,
        "timestamp": "2025-12-03T04:52:29.914679+00:00",
        "meta_object_name": "FENGYUN 1C DEB",
        "meta_object_id": "1999-025AMK",
        "meta_epoch": "2025-12-02T20:36:37.130112",
        "meta_mean_motion": 14.23583387,
        "meta_eccentricity": 0.0210266,
        "meta_inclination": 98.4039,
        "meta_ra_of_asc_node": 12.1303,
        "meta_arg_of_pericenter": 35.7359,
        "meta_mean_anomaly": 141.1928,
        "meta_ephemeris_type": 0,
        "meta_classification_type": "U",
        "meta_norad_cat_id": 30604,
        "meta_element_set_no": 999,
        "meta_rev_at_epoch": 97698,
        "meta_bstar": 0.00037996,
        "meta_mean_motion_dot": 1.043e-05,
        "meta_mean_motion_ddot": 0,
        "tle_line1": "1 30604U 99025AMK 25336.85876308  .00001043  00000+0  37996-3 0  9996",
        "tle_line2": "2 30604  98.4039  12.1303 0210266  35.7359 141.1928 14.23583387976986"
      },
      "geometry": {
        "type": "Point",
        "coordinates": [
          -161.27979031804668,
          36.41530010931052
        ]
      }
    },
    {
      "type": "Feature",
      "properties": {
        "norad_id": 30606,
        "name": "FENGYUN 1C DEB",
        "group": "fengyun-1c-debris",
        "lat": 43.77415219127505,
        "lon": -20.224435006309808,
        "alt_km": 776.3049436364472,
        "timestamp": "2025-12-03T04:52:29.914690+00:00",
        "meta_object_name": "FENGYUN 1C DEB",
        "meta_object_id": "1999-025AMM",
        "meta_epoch": "2025-12-02T17:24:59.305824",
        "meta_mean_motion": 14.57523624,
        "meta_eccentricity": 0.021386,
        "meta_inclination": 98.0962,
        "meta_ra_of_asc_node": 347.1494,
        "meta_arg_of_pericenter": 168.3021,
        "meta_mean_anomaly": 254.5224,
        "meta_ephemeris_type": 0,
        "meta_classification_type": "U",
        "meta_norad_cat_id": 30606,
        "meta_element_set_no": 999,
        "meta_rev_at_epoch": 99096,
        "meta_bstar": 0.00076512,
        "meta_mean_motion_dot": 4.715e-05,
        "meta_mean_motion_ddot": 0,
        "tle_line1": "1 30606U 99025AMM 25336.72568641  .00004715  00000+0  76512-3 0  9998",
        "tle_line2": "2 30606  98.0962 347.1494 0213860 168.3021 254.5224 14.57523624990960"
      },
      "geometry": {
        "type": "Point",
        "coordinates": [
          -20.224435006309808,
          43.77415219127505
        ]
      }
    },
    {
      "type": "Feature",
      "properties": {
        "norad_id": 30608,
        "name": "FENGYUN 1C DEB",
        "group": "fengyun-1c-debris",
        "lat": 51.75395724035705,
        "lon": 28.66838613294862,
        "alt_km": 802.3661674171681,
        "timestamp": "2025-12-03T04:52:29.914699+00:00",
        "meta_object_name": "FENGYUN 1C DEB",
        "meta_object_id": "1999-025AMP",
        "meta_epoch": "2025-12-02T19:04:59.375424",
        "meta_mean_motion": 14.28383413,
        "meta_eccentricity": 0.0015608,
        "meta_inclination": 98.7124,
        "meta_ra_of_asc_node": 39.4791,
        "meta_arg_of_pericenter": 208.0077,
        "meta_mean_anomaly": 267.9669,
        "meta_ephemeris_type": 0,
        "meta_classification_type": "U",
        "meta_norad_cat_id": 30608,
        "meta_element_set_no": 999,
        "meta_rev_at_epoch": 97297,
        "meta_bstar": 0.0014839,
        "meta_mean_motion_dot": 3.671e-05,
        "meta_mean_motion_ddot": 0,
        "tle_line1": "1 30608U 99025AMP 25336.79513166  .00003671  00000+0  14839-2 0  9992",
        "tle_line2": "2 30608  98.7124  39.4791 0015608 208.0077 267.9669 14.28383413972973"
      },
      "geometry": {
        "type": "Point",
        "coordinates": [
          28.66838613294862,
          51.75395724035705
        ]
      }
    },
    {
      "type": "Feature",
      "properties": {
        "norad_id": 30609,
        "name": "FENGYUN 1C DEB",
        "group": "fengyun-1c-debris",
        "lat": 3.5744448696577624,
        "lon": 74.79165505056832,
        "alt_km": 866.6344460918917,
        "timestamp": "2025-12-03T04:52:29.914710+00:00",
        "meta_object_name": "FENGYUN 1C DEB",
        "meta_object_id": "1999-025AMQ",
        "meta_epoch": "2025-12-02T17:50:39.564672",
        "meta_mean_motion": 14.11078979,
        "meta_eccentricity": 0.011848,
        "meta_inclination": 98.5668,
        "meta_ra_of_asc_node": 253.8136,
        "meta_arg_of_pericenter": 81.1865,
        "meta_mean_anomaly": 280.2702,
        "meta_ephemeris_type": 0,
        "meta_classification_type": "U",
        "meta_norad_cat_id": 30609,
        "meta_element_set_no": 999,
        "meta_rev_at_epoch": 95587,
        "meta_bstar": 0.0026141,
        "meta_mean_motion_dot": 4.986e-05,
        "meta_mean_motion_ddot": 0,
        "tle_line1": "1 30609U 99025AMQ 25336.74351348  .00004986  00000+0  26141-2 0  9999",
        "tle_line2": "2 30609  98.5668 253.8136 0118480  81.1865 280.2702 14.11078979955873"
      },
      "geometry": {
        "type": "Point",
        "coordinates": [
          74.79165505056832,
          3.5744448696577624
        ]
      }
    },
    {
      "type": "Feature",
      "properties": {
        "norad_id": 30612,
        "name": "FENGYUN 1C DEB",
        "group": "fengyun-1c-debris",
        "lat": 11.023314861367464,
        "lon": -37.49326902784854,
        "alt_km": 462.31404333934097,
        "timestamp": "2025-12-03T04:52:29.914720+00:00",
        "meta_object_name": "FENGYUN 1C DEB",
        "meta_object_id": "1999-025AMT",
        "meta_epoch": "2025-12-02T12:04:08.919264",
        "meta_mean_motion": 15.2669278,
        "meta_eccentricity": 0.0035943,
        "meta_inclination": 99.0832,
        "meta_ra_of_asc_node": 323.442,
        "meta_arg_of_pericenter": 21.6624,
        "meta_mean_anomaly": 103.2341,
        "meta_ephemeris_type": 0,
        "meta_classification_type": "U",
        "meta_norad_cat_id": 30612,
        "meta_element_set_no": 999,
        "meta_rev_at_epoch": 101,
        "meta_bstar": 0.0043375553,
        "meta_mean_motion_dot": 0.00117633,
        "meta_mean_motion_ddot": 0,
        "tle_line1": "1 30612U 99025AMT 25336.50288101  .00117633  00000+0  43376-2 0  9996",
        "tle_line2": "2 30612  99.0832 323.4420 0035943  21.6624 103.2341 15.26692780  1010"
      },
      "geometry": {
        "type": "Point",
        "coordinates": [
          -37.49326902784854,
          11.023314861367464
        ]
      }
    },
    {
      "type": "Feature",
      "properties": {
        "norad_id": 30613,
        "name": "FENGYUN 1C DEB",
        "group": "fengyun-1c-debris",
        "lat": -8.907067450526505,
        "lon": -85.25953157214018,
        "alt_km": 476.6393795390886,
        "timestamp": "2025-12-03T04:52:29.914731+00:00",
        "meta_object_name": "FENGYUN 1C DEB",
        "meta_object_id": "1999-025AMU",
        "meta_epoch": "2025-12-02T07:25:37.381152",
        "meta_mean_motion": 15.14348956,
        "meta_eccentricity": 0.00735195,
        "meta_inclination": 98.3075,
        "meta_ra_of_asc_node": 95.0776,
        "meta_arg_of_pericenter": 201.6953,
        "meta_mean_anomaly": 158.1158,
        "meta_ephemeris_type": 0,
        "meta_classification_type": "U",
        "meta_norad_cat_id": 30613,
        "meta_element_set_no": 999,
        "meta_rev_at_epoch": 99238,
        "meta_bstar": 0.0051242974,
        "meta_mean_motion_dot": 0.0010165,
        "meta_mean_motion_ddot": 0,
        "tle_line1": "1 30613U 99025AMU 25336.30946043  .00101650  00000+0  51243-2 0  9995",
        "tle_line2": "2 30613  98.3075  95.0776 0073519 201.6953 158.1158 15.14348956992388"
      },
      "geometry": {
        "type": "Point",
        "coordinates": [
          -85.25953157214018,
          -8.907067450526505
        ]
      }
    }
  ]
}